NORAD_CAT_ID,OBJECT_NAME,OBJECT_TYPE,EPOCH,MEAN_MOTION,ECCENTRICITY,INCLINATION,RA_OF_ASC_NODE,ARG_OF_PERICENTER,MEAN_ANOMALY,BSTAR,MEAN_MOTION_DOT,MEAN_MOTION_DDOT,TLE_LINE0,TLE_LINE1,TLE_LINE2,SEMIMAJOR_AXIS,PERIOD,APOGEE,PERIGEE,DECAYED
51790.0,STARLINK-3631,PAYLOAD,2023-12-31 02:59:03,15.08840364,0.0001802,53.2185,338.5106,79.7321,280.3874,3.7565e-05,3.1e-06,0.0,0 STARLINK-3631,1 51790U 22017Y   23365.12434906  .00000310  00000-0  37565-4 0  9996,2 51790  53.2185 338.5106 0001802  79.7321 280.3874 15.08840364103267,6917.879,95.438,540.991,538.498,0.0
51790.0,STARLINK-3631,PAYLOAD,2023-12-31 07:45:12,15.08845567,0.0001637,53.2183,337.617,90.6054,269.5126,6.428e-05,7.35e-06,0.0,0 STARLINK-3631,1 51790U 22017Y   23365.32306429  .00000735  00000-0  64280-4 0  9991,2 51790  53.2183 337.6170 0001637  90.6054 269.5126 15.08845567103299,6917.863,95.437,540.861,538.596,0.0
51790.0,STARLINK-3631,PAYLOAD,2024-01-01 07:35:59,15.08844224,0.0001824,53.2188,333.1532,114.7107,245.4075,-1.9702e-05,-6.02e-06,0.0,0 STARLINK-3631,1 51790U 22017Y   24001.31666559 -.00000602  00000-0 -19702-4 0  9995,2 51790  53.2188 333.1532 0001824 114.7107 245.4075 15.08844224103444,6917.867,95.437,540.994,538.471,0.0
51790.0,STARLINK-3631,PAYLOAD,2024-01-02 04:15:59,15.08851051,0.0001711,53.219,329.2879,104.5656,255.5526,8.5383e-05,1.071e-05,0.0,0 STARLINK-3631,1 51790U 22017Y   24002.17777722  .00001071  00000-0  85383-4 0  9992,2 51790  53.2190 329.2879 0001711 104.5656 255.5526 15.08851051103571,6917.847,95.437,540.895,538.528,0.0
51790.0,STARLINK-3631,PAYLOAD,2024-01-02 21:45:15,15.08846271,0.0001906,53.2193,326.0231,79.8184,280.3024,-1.1878e-06,-3.07e-06,0.0,0 STARLINK-3631,1 51790U 22017Y   24002.90642423 -.00000307  00000-0 -11878-5 0  9994,2 51790  53.2193 326.0231 0001906  79.8184 280.3024 15.08846271103686,6917.861,95.437,541.045,538.408,0.0
51790.0,STARLINK-3631,PAYLOAD,2024-01-03 04:06:47,15.08845778,0.0001466,53.2185,324.8287,90.4887,269.6273,4.7877e-05,4.74e-06,0.0,0 STARLINK-3631,1 51790U 22017Y   24003.17138077  .00000474  00000-0  47877-4 0  9999,2 51790  53.2185 324.8287 0001466  90.4887 269.6273 15.08845778103726,6917.863,95.437,540.742,538.714,0.0
51790.0,STARLINK-3631,PAYLOAD,2024-01-04 03:57:34,15.08841475,0.0001495,53.2181,320.3664,94.61,265.5063,-8.9294e-05,-1.709e-05,0.0,0 STARLINK-3631,1 51790U 22017Y   24004.16498784 -.00001709  00000-0 -89294-4 0  9996,2 51790  53.2181 320.3664 0001495  94.6100 265.5063 15.08841475103876,6917.876,95.437,540.775,538.707,0.0
51790.0,STARLINK-3631,PAYLOAD,2024-01-04 21:26:49,15.08841253,0.000141,53.2185,317.0969,89.1138,271.0015,2.9325e-05,1.79e-06,0.0,0 STARLINK-3631,1 51790U 22017Y   24004.89362536  .00000179  00000-0  29325-4 0  9998,2 51790  53.2185 317.0969 0001410  89.1138 271.0015 15.08841253103983,6917.877,95.437,540.717,538.766,0.0
51790.0,STARLINK-3631,PAYLOAD,2024-01-05 03:48:21,15.0884977,0.0001468,53.2186,315.9059,94.788,265.328,8.1494e-05,1.01e-05,0.0,0 STARLINK-3631,1 51790U 22017Y   24005.15857776  .00001010  00000-0  81494-4 0  9993,2 51790  53.2186 315.9059 0001468  94.7880 265.3280 15.08849770104028,6917.851,95.437,540.731,538.7,0.0
51790.0,STARLINK-3631,PAYLOAD,2024-01-05 05:23:43,15.08856645,0.0001874,53.2181,315.6114,102.2263,257.8939,3.9239e-05,3.37e-06,0.0,0 STARLINK-3631,1 51790U 22017Y   24005.22481463  .00000337  00000-0  39239-4 0  9998,2 51790  53.2181 315.6114 0001874 102.2263 257.8939 15.08856645104030,6917.83,95.437,540.991,538.398,0.0
51790.0,STARLINK-3631,PAYLOAD,2024-01-06 03:39:09,15.08834127,0.0001395,53.2185,311.4467,80.6947,279.4203,3.7926e-05,3.16e-06,0.0,0 STARLINK-3631,1 51790U 22017Y   24006.15219252  .00000316  00000-0  37926-4 0  9994,2 51790  53.2185 311.4467 0001395  80.6947 279.4203 15.08834127104175,6917.898,95.438,540.728,538.798,0.0
51790.0,STARLINK-3631,PAYLOAD,2024-01-06 05:14:32,15.08835788,0.0001386,53.2185,311.1492,86.2079,273.9072,5.1699e-05,5.35e-06,0.0,0 STARLINK-3631,1 51790U 22017Y   24006.21843127  .00000535  00000-0  51699-4 0  9991,2 51790  53.2185 311.1492 0001386  86.2079 273.9072 15.08835788104186,6917.893,95.438,540.717,538.799,0.0
51790.0,STARLINK-3631,PAYLOAD,2024-01-06 19:33:00,15.0884063,0.0001398,53.2186,308.4771,94.6974,265.4178,-3.7823e-05,-8.9e-06,0.0,0 STARLINK-3631,1 51790U 22017Y   24006.81459297 -.00000890  00000-0 -37823-4 0  9997,2 51790  53.2186 308.4771 0001398  94.6974 265.4178 15.08840630104271,6917.878,95.438,540.711,538.776,0.0
51790.0,STARLINK-3631,PAYLOAD,2024-01-07 03:29:56,15.08844928,0.000146,53.2187,306.9911,88.9742,271.1417,1.018e-05,-1.26e-06,0.0,0 STARLINK-3631,1 51790U 22017Y   24007.14578872 -.00000126  00000-0  10180-4 0  9993,2 51790  53.2187 306.9911 0001460  88.9742 271.1417 15.08844928104320,6917.865,95.437,540.74,538.72,0.0
51790.0,STARLINK-3631,PAYLOAD,2024-01-07 19:23:48,15.08836378,0.000161,53.2187,304.0188,70.5025,289.6141,7.4775e-05,9.02e-06,0.0,0 STARLINK-3631,1 51790U 22017Y   24007.80819515  .00000902  00000-0  74775-4 0  9999,2 51790  53.2187 304.0188 0001610  70.5025 289.6141 15.08836378104422,6917.891,95.438,540.87,538.643,0.0
51790.0,STARLINK-3631,PAYLOAD,2024-01-08 04:56:06,15.08841945,0.0001387,53.2186,302.2315,83.5517,276.5633,0.00010464,1.378e-05,0.0,0 STARLINK-3631,1 51790U 22017Y   24008.20563066  .00001378  00000-0  10464-3 0  9993,2 51790  53.2186 302.2315 0001387  83.5517 276.5633 15.08841945104487,6917.874,95.437,540.699,538.78,0.0
51790.0,STARLINK-3631,PAYLOAD,2024-01-09 01:36:07,15.08845374,0.0001435,53.218,298.3643,89.2615,270.8542,4.3987e-05,4.12e-06,0.0,0 STARLINK-3631,1 51790U 22017Y   24009.06675119  .00000412  00000-0  43987-4 0  9996,2 51790  53.2180 298.3643 0001435  89.2615 270.8542 15.08845374104617,6917.864,95.437,540.722,538.736,0.0
51790.0,STARLINK-3631,PAYLOAD,2024-01-09 19:05:22,15.08841173,0.0001578,53.2174,295.0942,68.3101,291.8059,6.1779e-05,6.95e-06,0.0,0 STARLINK-3631,1 51790U 22017Y   24009.79539469  .00000695  00000-0  61779-4 0  9995,2 51790  53.2174 295.0942 0001578  68.3101 291.8059 15.08841173104723,6917.877,95.437,540.833,538.65,0.0
51790.0,STARLINK-3631,PAYLOAD,2024-01-09 22:16:08,15.08841154,0.0001404,53.2171,294.4991,83.5866,276.5286,6.7496e-05,7.86e-06,0.0,0 STARLINK-3631,1 51790U 22017Y   24009.92787321  .00000786  00000-0  67496-4 0  9995,2 51790  53.2171 294.4991 0001404  83.5866 276.5286 15.08841154104745,6917.877,95.437,540.713,538.771,0.0
51790.0,STARLINK-3631,PAYLOAD,2024-01-10 01:26:54,15.088435,0.0001481,53.2175,293.9045,80.4084,279.7076,6.378e-05,7.27e-06,0.0,0 STARLINK-3631,1 51790U 22017Y   24010.06035202  .00000727  00000-0  63780-4 0  9993,2 51790  53.2175 293.9045 0001481  80.4084 279.7076 15.08843500104767,6917.87,95.437,540.759,538.71,0.0
51790.0,STARLINK-3631,PAYLOAD,2024-01-11 04:28:27,15.08849375,0.0001541,53.2176,288.8469,97.3234,262.7933,4.168e-05,3.76e-06,0.0,0 STARLINK-3631,1 51790U 22017Y   24011.18642708  .00000376  00000-0  41680-4 0  9997,2 51790  53.2176 288.8469 0001541  97.3234 262.7933 15.08849375104931,6917.852,95.437,540.783,538.651,0.0
51790.0,STARLINK-3631,PAYLOAD,2024-01-11 18:46:56,15.08832952,0.0001593,53.218,286.1738,90.8945,269.2229,-1.3636e-05,-5.05e-06,0.0,0 STARLINK-3631,1 51790U 22017Y   24011.78260137 -.00000505  00000-0 -13636-4 0  9991,2 51790  53.2180 286.1738 0001593  90.8945 269.2229 15.08832952105024,6917.902,95.438,540.869,538.665,0.0
51790.0,STARLINK-3631,PAYLOAD,2024-01-11 21:57:42,15.08839921,0.0001594,53.216,285.5718,114.9185,245.1973,-3.4377e-05,-8.35e-06,0.0,0 STARLINK-3631,1 51790U 22017Y   24011.91507610 -.00000835  00000-0 -34377-4 0  9997,2 51790  53.2160 285.5718 0001594 114.9185 245.1973 15.08839921105042,6917.881,95.438,540.848,538.643,0.0
51790.0,STARLINK-3631,PAYLOAD,2024-01-12 01:08:28,15.08839915,0.0001416,53.2172,284.9823,95.8776,264.2378,1.5527e-05,-4.1e-07,0.0,0 STARLINK-3631,1 51790U 22017Y   24012.04755632 -.00000041  00000-0  15527-4 0  9995,2 51790  53.2172 284.9823 0001416  95.8776 264.2378 15.08839915105067,6917.881,95.438,540.725,538.766,0.0
51790.0,STARLINK-3631,PAYLOAD,2024-01-12 04:19:15,15.08841719,0.0001424,53.2172,284.3869,99.7541,260.3612,2.775e-05,1.54e-06,0.0,0 STARLINK-3631,1 51790U 22017Y   24012.18003513  .00000154  00000-0  27750-4 0  9999,2 51790  53.2172 284.3869 0001424  99.7541 260.3612 15.08841719105088,6917.875,95.437,540.725,538.755,0.0
51790.0,STARLINK-3631,PAYLOAD,2024-01-12 21:48:30,15.08834888,0.0001602,53.2171,281.1121,109.323,250.7935,-0.00017105,-3.009e-05,0.0,0 STARLINK-3631,1 51790U 22017Y   24012.90869121 -.00003009  00000-0 -17105-3 0  9990,2 51790  53.2171 281.1121 0001602 109.3230 250.7935 15.08834888105196,6917.896,95.438,540.869,538.653,0.0
51790.0,STARLINK-3631,PAYLOAD,2024-01-13 02:34:40,15.08830821,0.0001501,53.2176,280.2229,98.133,261.9833,-3.0779e-05,-7.78e-06,0.0,0 STARLINK-3631,1 51790U 22017Y   24013.10741145 -.00000778  00000-0 -30779-4 0  9991,2 51790  53.2176 280.2229 0001501  98.1330 261.9833 15.08830821105222,6917.908,95.438,540.812,538.735,0.0
51790.0,STARLINK-3631,PAYLOAD,2024-01-14 02:25:25,15.08860497,0.0001327,53.217,275.7647,95.0868,265.0276,0.00031954,4.804e-05,0.0,0 STARLINK-3631,1 51790U 22017Y   24014.10098784  .00004804  00000-0  31954-3 0  9993,2 51790  53.2170 275.7647 0001327  95.0868 265.0276 15.08860497105371,6917.818,95.436,540.601,538.765,0.0
51790.0,STARLINK-3631,PAYLOAD,2024-01-14 16:43:55,15.08841561,0.0001871,53.2152,273.0912,79.4234,280.6969,0.00030023,4.494e-05,0.0,0 STARLINK-3631,1 51790U 22017Y   24014.69716754  .00004494  00000-0  30023-3 0  9992,2 51790  53.2152 273.0912 0001871  79.4234 280.6969 15.08841561105467,6917.876,95.437,541.035,538.446,0.0
51790.0,STARLINK-3631,PAYLOAD,2024-01-14 21:30:04,15.08840717,0.0001444,53.2143,272.2017,58.994,301.1194,3.7558e-05,3.1e-06,0.0,0 STARLINK-3631,1 51790U 22017Y   24014.89588586  .00000310  00000-0  37558-4 0  9998,2 51790  53.2143 272.2017 0001444  58.9940 301.1194 15.08840717105490,6917.878,95.438,540.742,538.744,0.0
